start=new Date('2022-05-14T00:00:00.000Z').valueOf();
sats=[{"MEAN_MOTION":"15.08833440","OBJECT_ID":"2022-016B","OBJECT_NAME":"STARLINK-3533","PERIAPSIS":"538.160","ECCENTRICITY":"0.00023210","NORAD_CAT_ID":"51715","BSTAR":"0.00022850000000","MEAN_ANOMALY":"264.6185","EPOCH":"2022-05-13T22:00:00.999936","INCLINATION":"53.2178","SEMIMAJOR_AXIS":"6917.900","RCS_SIZE":"LARGE","DECAY_DATE":null,"CLASSIFICATION_TYPE":"U","OBJECT_TYPE":"PAYLOAD","ELEMENT_SET_NO":"999","REV_AT_EPOCH":"130","MEAN_MOTION_DDOT":"0.0000000000000","COUNTRY_CODE":"US","GP_ID":"203480926","PERIOD":"95.438","SITE":"AFETR","MEAN_ELEMENT_THEORY":"SGP4","TLE_LINE2":"2 51715  53.2178 114.9779 0002321  50.0254 264.6185 15.08833440  1301","CENTER_NAME":"EARTH","MEAN_MOTION_DOT":"0.00003350","APOAPSIS":"541.371","EPHEMERIS_TYPE":"0","TLE_LINE1":"1 51715U 22016B   22133.91667824  .00003350  00000-0  22850-3 0  9995","ARG_OF_PERICENTER":"50.0254","FILE":"3444395","TIME_SYSTEM":"UTC","LAUNCH_DATE":"2022-02-21","REF_FRAME":"TEME","RA_OF_ASC_NODE":"114.9779"},{"MEAN_ELEMENT_THEORY":"SGP4","TLE_LINE2":"2 51716  53.2191 114.9804 0002212  45.9359 228.7226 15.08827750  1308","CENTER_NAME":"EARTH","MEAN_MOTION_DOT":"0.00030722","APOAPSIS":"541.313","FILE":"3444395","TLE_LINE1":"1 51716U 22016C   22133.91667824  .00030722  00000-0  19406-2 0  9991","ARG_OF_PERICENTER":"45.9359","EPHEMERIS_TYPE":"0","REF_FRAME":"TEME","LAUNCH_DATE":"2022-02-21","TIME_SYSTEM":"UTC","RA_OF_ASC_NODE":"114.9804","OBJECT_NAME":"STARLINK-3543","OBJECT_ID":"2022-016C","MEAN_MOTION":"15.08827750","PERIAPSIS":"538.253","ECCENTRICITY":"0.00022120","NORAD_CAT_ID":"51716","BSTAR":"0.00194060000000","SEMIMAJOR_AXIS":"6917.918","INCLINATION":"53.2191","EPOCH":"2022-05-13T22:00:00.999936","MEAN_ANOMALY":"228.7226","RCS_SIZE":"LARGE","REV_AT_EPOCH":"130","OBJECT_TYPE":"PAYLOAD","ELEMENT_SET_NO":"999","CLASSIFICATION_TYPE":"U","DECAY_DATE":null,"SITE":"AFETR","GP_ID":"203481081","PERIOD":"95.438","COUNTRY_CODE":"US","MEAN_MOTION_DDOT":"0.0000000000000"},{"PERIOD":"95.438","GP_ID":"203481176","SITE":"AFETR","MEAN_MOTION_DDOT":"0.0000000000000","COUNTRY_CODE":"US","REV_AT_EPOCH":"130","OBJECT_TYPE":"PAYLOAD","ELEMENT_SET_NO":"999","DECAY_DATE":null,"CLASSIFICATION_TYPE":"U","RCS_SIZE":"LARGE","INCLINATION":"53.2185","SEMIMAJOR_AXIS":"6917.880","MEAN_ANOMALY":"241.3451","EPOCH":"2022-05-13T22:00:00.999936","BSTAR":"0.00048139000000","NORAD_CAT_ID":"51717","ECCENTRICITY":"0.00019660","PERIAPSIS":"538.385","OBJECT_ID":"2022-016D","OBJECT_NAME":"STARLINK-3445","MEAN_MOTION":"15.08840152","RA_OF_ASC_NODE":"114.9783","LAUNCH_DATE":"2022-02-21","TIME_SYSTEM":"UTC","REF_FRAME":"TEME","FILE":"3444395","TLE_LINE1":"1 51717U 22016D   22133.91667824  .00007382  00000-0  48139-3 0  9994","EPHEMERIS_TYPE":"0","ARG_OF_PERICENTER":"53.3232","APOAPSIS":"541.105","MEAN_MOTION_DOT":"0.00007382","CENTER_NAME":"EARTH","TLE_LINE2":"2 51717  53.2185 114.9783 0001966  53.3232 241.3451 15.08840152  1308","MEAN_ELEMENT_THEORY":"SGP4"},{"ECCENTRICITY":"0.00018770","NORAD_CAT_ID":"51718","BSTAR":"0.00199520000000","OBJECT_ID":"2022-016E","OBJECT_NAME":"STARLINK-3546","MEAN_MOTION":"15.08826011","PERIAPSIS":"538.490","ELEMENT_SET_NO":"999","OBJECT_TYPE":"PAYLOAD","REV_AT_EPOCH":"130","CLASSIFICATION_TYPE":"U","DECAY_DATE":null,"SITE":"AFETR","GP_ID":"203480986","PERIOD":"95.438","COUNTRY_CODE":"US","MEAN_MOTION_DDOT":"0.0000000000000","SEMIMAJOR_AXIS":"6917.923","INCLINATION":"53.2129","EPOCH":"2022-05-13T22:00:00.999936","MEAN_ANOMALY":"325.9335","RCS_SIZE":"LARGE","TLE_LINE2":"2 51718  53.2129 114.9860 0001877  48.7358 325.9335 15.08826011  1309","CENTER_NAME":"EARTH","MEAN_MOTION_DOT":"0.00031596","MEAN_ELEMENT_THEORY":"SGP4","REF_FRAME":"TEME","LAUNCH_DATE":"2022-02-21","TIME_SYSTEM":"UTC","RA_OF_ASC_NODE":"114.9860","APOAPSIS":"541.087","FILE":"3444395","TLE_LINE1":"1 51718U 22016E   22133.91667824  .00031596  00000-0  19952-2 0  9999","ARG_OF_PERICENTER":"48.7358","EPHEMERIS_TYPE":"0"},{"PERIAPSIS":"538.372","OBJECT_ID":"2022-016F","OBJECT_NAME":"STARLINK-3540","MEAN_MOTION":"15.08823659","BSTAR":"0.00210250000000","NORAD_CAT_ID":"51719","ECCENTRICITY":"0.00020580","RCS_SIZE":"LARGE","INCLINATION":"53.2177","SEMIMAJOR_AXIS":"6917.930","MEAN_ANOMALY":"278.1909","EPOCH":"2022-05-13T22:00:00.999936","GP_ID":"203481271","PERIOD":"95.439","SITE":"AFETR","COUNTRY_CODE":"US","MEAN_MOTION_DDOT":"0.0000000000000","ELEMENT_SET_NO":"999","OBJECT_TYPE":"PAYLOAD","REV_AT_EPOCH":"130","DECAY_DATE":null,"CLASSIFICATION_TYPE":"U","MEAN_ELEMENT_THEORY":"SGP4","CENTER_NAME":"EARTH","MEAN_MOTION_DOT":"0.00033317","TLE_LINE2":"2 51719  53.2177 114.9759 0002058  56.4767 278.1909 15.08823659  1303","FILE":"3444395","TLE_LINE1":"1 51719U 22016F   22133.91667824  .00033317  00000-0  21025-2 0  9997","EPHEMERIS_TYPE":"0","ARG_OF_PERICENTER":"56.4767","APOAPSIS":"541.219","RA_OF_ASC_NODE":"114.9759","TIME_SYSTEM":"UTC","LAUNCH_DATE":"2022-02-21","REF_FRAME":"TEME"},{"DECAY_DATE":null,"CLASSIFICATION_TYPE":"U","ELEMENT_SET_NO":"999","OBJECT_TYPE":"PAYLOAD","REV_AT_EPOCH":"130","MEAN_MOTION_DDOT":"0.0000000000000","COUNTRY_CODE":"US","GP_ID":"203480736","PERIOD":"95.439","SITE":"AFETR","MEAN_ANOMALY":"347.0303","EPOCH":"2022-05-13T22:00:00.999936","INCLINATION":"53.2142","SEMIMAJOR_AXIS":"6917.950","RCS_SIZE":"LARGE","NORAD_CAT_ID":"51720","ECCENTRICITY":"0.00022270","BSTAR":"0.00201760000000","MEAN_MOTION":"15.08817127","OBJECT_ID":"2022-016G","OBJECT_NAME":"STARLINK-3526","PERIAPSIS":"538.275","LAUNCH_DATE":"2022-02-21","TIME_SYSTEM":"UTC","REF_FRAME":"TEME","RA_OF_ASC_NODE":"114.9871","APOAPSIS":"541.356","TLE_LINE1":"1 51720U 22016G   22133.91667824  .00031949  00000-0  20176-2 0  9994","ARG_OF_PERICENTER":"47.6322","EPHEMERIS_TYPE":"0","FILE":"3444395","TLE_LINE2":"2 51720  53.2142 114.9871 0002227  47.6322 347.0303 15.08817127  1306","CENTER_NAME":"EARTH","MEAN_MOTION_DOT":"0.00031949","MEAN_ELEMENT_THEORY":"SGP4"},{"RCS_SIZE":"LARGE","INCLINATION":"53.2172","SEMIMAJOR_AXIS":"6917.947","MEAN_ANOMALY":"301.8653","EPOCH":"2022-05-13T22:00:00.999936","PERIOD":"95.439","GP_ID":"203480832","SITE":"AFETR","COUNTRY_CODE":"US","MEAN_MOTION_DDOT":"0.0000000000000","OBJECT_TYPE":"PAYLOAD","ELEMENT_SET_NO":"999","REV_AT_EPOCH":"130","DECAY_DATE":null,"CLASSIFICATION_TYPE":"U","PERIAPSIS":"538.353","OBJECT_ID":"2022-016H","OBJECT_NAME":"STARLINK-3524","MEAN_MOTION":"15.08818124","BSTAR":"0.00210470000000","ECCENTRICITY":"0.00021090","NORAD_CAT_ID":"51721","FILE":"3444395","EPHEMERIS_TYPE":"0","TLE_LINE1":"1 51721U 22016H   22133.91667824  .00033348  00000-0  21047-2 0  9998","ARG_OF_PERICENTER":"52.7912","APOAPSIS":"541.271","RA_OF_ASC_NODE":"114.9738","TIME_SYSTEM":"UTC","LAUNCH_DATE":"2022-02-21","REF_FRAME":"TEME","MEAN_ELEMENT_THEORY":"SGP4","MEAN_MOTION_DOT":"0.00033348","CENTER_NAME":"EARTH","TLE_LINE2":"2 51721  53.2172 114.9738 0002109  52.7912 301.8653 15.08818124  1307"},{"MEAN_ELEMENT_THEORY":"SGP4","TLE_LINE2":"2 51722  53.2135 114.9846 0002238  54.1564  20.5224 15.08821074  1306","MEAN_MOTION_DOT":"0.00033158","CENTER_NAME":"EARTH","APOAPSIS":"541.351","FILE":"3444395","TLE_LINE1":"1 51722U 22016J   22133.91667824  .00033158  00000-0  20927-2 0  9994","ARG_OF_PERICENTER":"54.1564","EPHEMERIS_TYPE":"0","REF_FRAME":"TEME","TIME_SYSTEM":"UTC","LAUNCH_DATE":"2022-02-21","RA_OF_ASC_NODE":"114.9846","OBJECT_ID":"2022-016J","OBJECT_NAME":"STARLINK-3535","MEAN_MOTION":"15.08821074","PERIAPSIS":"538.255","NORAD_CAT_ID":"51722","ECCENTRICITY":"0.00022380","BSTAR":"0.00209270000000","SEMIMAJOR_AXIS":"6917.938","INCLINATION":"53.2135","EPOCH":"2022-05-13T22:00:00.999936","MEAN_ANOMALY":"20.5224","RCS_SIZE":"LARGE","OBJECT_TYPE":"PAYLOAD","REV_AT_EPOCH":"130","ELEMENT_SET_NO":"999","CLASSIFICATION_TYPE":"U","DECAY_DATE":null,"SITE":"AFETR","PERIOD":"95.439","GP_ID":"203480642","MEAN_MOTION_DDOT":"0.0000000000000","COUNTRY_CODE":"US"},{"PERIAPSIS":"335.870","MEAN_MOTION":"15.76064494","OBJECT_ID":"2022-016K","OBJECT_NAME":"STARLINK-3531","BSTAR":"-0.00000185840000","NORAD_CAT_ID":"51723","ECCENTRICITY":"0.00085350","RCS_SIZE":"LARGE","EPOCH":"2022-05-13T22:00:00.999936","MEAN_ANOMALY":"21.9877","SEMIMAJOR_AXIS":"6719.741","INCLINATION":"53.2216","MEAN_MOTION_DDOT":"0.0000000000000","COUNTRY_CODE":"US","SITE":"AFETR","GP_ID":"203480927","PERIOD":"91.367","CLASSIFICATION_TYPE":"U","DECAY_DATE":null,"OBJECT_TYPE":"PAYLOAD","ELEMENT_SET_NO":"999","REV_AT_EPOCH":"130","MEAN_ELEMENT_THEORY":"SGP4","MEAN_MOTION_DOT":"-0.00000958","CENTER_NAME":"EARTH","TLE_LINE2":"2 51723  53.2216  95.4496 0008535 274.7729  21.9877 15.76064494  1309","TLE_LINE1":"1 51723U 22016K   22133.91667824 -.00000958  00000-0 -18584-5 0  9998","ARG_OF_PERICENTER":"274.7729","EPHEMERIS_TYPE":"0","FILE":"3444395","APOAPSIS":"347.341","RA_OF_ASC_NODE":"95.4496","REF_FRAME":"TEME","TIME_SYSTEM":"UTC","LAUNCH_DATE":"2022-02-21"},{"BSTAR":"-0.00083584000000","NORAD_CAT_ID":"51724","ECCENTRICITY":"0.00020360","PERIAPSIS":"538.318","MEAN_MOTION":"15.08846027","OBJECT_ID":"2022-016L","OBJECT_NAME":"STARLINK-3529","MEAN_MOTION_DDOT":"0.0000000000000","COUNTRY_CODE":"US","SITE":"AFETR","PERIOD":"95.437","GP_ID":"203481082","CLASSIFICATION_TYPE":"U","DECAY_DATE":null,"OBJECT_TYPE":"PAYLOAD","REV_AT_EPOCH":"130","ELEMENT_SET_NO":"999","RCS_SIZE":"LARGE","EPOCH":"2022-05-13T22:00:00.999936","MEAN_ANOMALY":"54.9816","SEMIMAJOR_AXIS":"6917.862","INCLINATION":"53.2137","MEAN_MOTION_DOT":"-0.00013569","CENTER_NAME":"EARTH","TLE_LINE2":"2 51724  53.2137 114.9848 0002036  59.6798  54.9816 15.08846027  1300","MEAN_ELEMENT_THEORY":"SGP4","RA_OF_ASC_NODE":"114.9848","REF_FRAME":"TEME","TIME_SYSTEM":"UTC","LAUNCH_DATE":"2022-02-21","EPHEMERIS_TYPE":"0","TLE_LINE1":"1 51724U 22016L   22133.91667824 -.00013569  00000-0 -83584-3 0  9991","ARG_OF_PERICENTER":"59.6798","FILE":"3444395","APOAPSIS":"541.135"}];
